{
    "links": {
        "self": "http://www.neowsapp.com/rest/v1/neo/3740669?api_key=iIulBulltgU6a56xZRHN4H3l9WmuAYTsLGpBGhQ2"
    },
    "id": "3740669",
    "neo_reference_id": "3740669",
    "name": "(2016 BV)",
    "designation": "2016 BV",
    "nasa_jpl_url": "http://ssd.jpl.nasa.gov/sbdb.cgi?sstr=3740669",
    "absolute_magnitude_h": 26.0,
    "estimated_diameter": {
        "kilometers": {
            "estimated_diameter_min": 0.0167708462,
            "estimated_diameter_max": 0.0375007522
        },
        "meters": {
            "estimated_diameter_min": 16.7708462163,
            "estimated_diameter_max": 37.5007521798
        },
        "miles": {
            "estimated_diameter_min": 0.0104209175,
            "estimated_diameter_max": 0.0233018799
        },
        "feet": {
            "estimated_diameter_min": 55.0224631002,
            "estimated_diameter_max": 123.0339677816
        }
    },
    "is_potentially_hazardous_asteroid": false,
    "close_approach_data": [
        {
            "close_approach_date": "1962-09-15",
            "close_approach_date_full": "1962-Sep-15 05:29",
            "epoch_date_close_approach": -230236260000,
            "relative_velocity": {
                "kilometers_per_second": "21.3976044378",
                "kilometers_per_hour": "77031.3759760346",
                "miles_per_hour": "47864.3013668866"
            },
            "miss_distance": {
                "astronomical": "0.368610929",
                "lunar": "143.389651381",
                "kilometers": "55143409.83712123",
                "miles": "34264526.005603774"
            },
            "orbiting_body": "Earth"
        },
        {
            "close_approach_date": "2016-01-13",
            "close_approach_date_full": "2016-Jan-13 07:53",
            "epoch_date_close_approach": 1452671580000,
            "relative_velocity": {
                "kilometers_per_second": "10.2925827651",
                "kilometers_per_hour": "37053.2979542272",
                "miles_per_hour": "23023.4783871696"
            },
            "miss_distance": {
                "astronomical": "0.0128563778",
                "lunar": "5.0011309642",
                "kilometers": "1923286.734795286",
                "miles": "1195074.9606395068"
            },
            "orbiting_body": "Earth"
        }
    ],
    "orbital_data": {
        "orbit_id": "4",
        "orbit_determination_date": "2017-04-06 08:28:59",
        "first_observation_date": "2016-01-18",
        "last_observation_date": "2016-01-30",
        "data_arc_in_days": 12,
        "observations_used": 27,
        "orbit_uncertainty": "8",
        "minimum_orbit_intersection": ".0031223",
        "jupiter_tisserand_invariant": "3.910",
        "epoch_osculation": "2457407.5",
        "eccentricity": ".5081231408756123",
        "semi_major_axis": "1.793600869892915",
        "inclination": "3.692838989969944",
        "ascending_node_longitude": "111.5423339272996",
        "orbital_period": "877.3787985953211",
        "perihelion_distance": ".8822307624056965",
        "perihelion_argument": "316.8333434483249",
        "aphelion_distance": "2.704970977380134",
        "perihelion_time": "2457368.081670559324",
        "mean_anomaly": "16.17385628802797",
        "mean_motion": ".4103130832160045",
        "equinox": "J2000",
        "orbit_class": {
            "orbit_class_type": "APO",
            "orbit_class_description": "Near-Earth asteroid orbits which cross the Earth’s orbit similar to that of 1862 Apollo",
            "orbit_class_range": "a (semi-major axis) > 1.0 AU; q (perihelion) < 1.017 AU"
        }
    },
    "is_sentry_object": false
}